1 47452U 21006AR  21193.13626390  .00000642  00000-0  39949-4 0  9997
2 47452  97.4915 253.9846 0011868  21.1779 338.9941 15.13026036 25783
1 47452U 21006AR  21193.33466746  .00000649  00000-0  40388-4 0  9992
2 47452  97.4916 254.1795 0011849  20.5424 339.6281 15.13026366 25814
1 47452U 21006AR  21193.79760902  .00000647  00000-0  40240-4 0  9998
2 47452  97.4915 254.6344 0011806  19.0246 341.1424 15.13026991 25884
1 47452U 21006AR  21194.32668500  .00000625  00000-0  39003-4 0  9990
2 47452  97.4915 255.1542 0011754  17.2878 342.8751 15.13027522 25964
1 47452U 21006AR  21194.72349192  .00000604  00000-0  37832-4 0  9992
2 47452  97.4914 255.5440 0011714  15.9662 344.1936 15.13027858 26026
1 47452U 21006AR  21195.38483646  .00000553  00000-0  34952-4 0  9991
2 47452  97.4914 256.1938 0011646  13.7482 346.4064 15.13028302 26128
1 47452U 21006AR  21195.78164276  .00000562  00000-0  35453-4 0  9997
2 47452  97.4913 256.5836 0011607  12.3919 347.7595 15.13028871 26185
1 47452U 21006AR  21197.36886696  .00000551  00000-0  34806-4 0  9999
2 47452  97.4912 258.1429 0011434   6.8900 353.2486 15.13030854 26428
1 47452U 21006AR  21198.36088115  .00000538  00000-0  34078-4 0  9996
2 47452  97.4911 259.1175 0011320   3.3851 356.7454 15.13032112 26575
1 47452U 21006AR  21198.75768660  .00000524  00000-0  33304-4 0  9995
2 47452  97.4911 259.5073 0011280   2.0050 358.1224 15.13032604 26632
1 47452U 21006AR  21198.82382085  .00000542  00000-0  34287-4 0  9997
2 47452  97.4911 259.5723 0011282   1.7899 358.3370 15.13032776 26648
1 47452U 21006AR  21199.35289459  .00000528  00000-0  33540-4 0  9992
2 47452  97.4911 260.0921 0011225 359.9483   0.1745 15.13033448 26723
1 47452U 21006AR  21199.81583389  .00000524  00000-0  33282-4 0  9991
2 47452  97.4911 260.5469 0011179 358.3482   1.7710 15.13034078 26791
1 47452U 21006AR  21200.08037054  .00000519  00000-0  32992-4 0  9997
2 47452  97.4910 260.8068 0011147 357.4159   2.7013 15.13034429 26836
1 47452U 21006AR  21200.80784613  .00000545  00000-0  34467-4 0  9995
2 47452  97.4910 261.5215 0011081 354.9015   5.2102 15.13035528 26948
1 47452U 21006AR  21201.40305297  .00000614  00000-0  38372-4 0  9995
2 47452  97.4911 262.1063 0011016 352.8411   7.2661 15.13036677 27031
1 47452U 21006AR  21201.86599148  .00000623  00000-0  38866-4 0  9993
2 47452  97.4910 262.5611 0010970 351.1944   8.9093 15.13037273 27102
1 47452U 21006AR  21202.39506353  .00000729  00000-0  44894-4 0  9993
2 47452  97.4910 263.0808 0010913 349.3392  10.7606 15.13038567 27185
1 47452U 21006AR  21202.92413539  .00000763  00000-0  46806-4 0  9998
2 47452  97.4910 263.6006 0010862 347.4457  12.6502 15.13039427 27266
1 47452U 21006AR  21203.45320720  .00000850  00000-0  51696-4 0  9996
2 47452  97.4910 264.1204 0010812 345.5550  14.5370 15.13040529 27348
1 47452U 21006AR  21203.78387609  .00001044  00000-0  62681-4 0  9993
2 47452  97.4909 264.4452 0010789 344.3430  15.7465 15.13042249 27395
1 47452U 21006AR  21204.51134858  .00001065  00000-0  63902-4 0  9991
2 47452  97.4909 265.1599 0010719 341.6761  18.4083 15.13043480 27502
1 47452U 21006AR  21204.90815099  .00001116  00000-0  66781-4 0  9992
2 47452  97.4908 265.5497 0010688 340.1866  19.8948 15.13044556 27563
1 47452U 21006AR  21205.50335497  .00001001  00000-0  60254-4 0  9990
2 47452  97.4908 266.1344 0010631 337.9195  22.1577 15.13044983 27657
1 47452U 21006AR  21206.16469161  .00001008  00000-0  60677-4 0  9995
2 47452  97.4907 266.7841 0010579 335.4082  24.6643 15.13046450 27756
1 47452U 21006AR  21206.49536003  .00000989  00000-0  59565-4 0  9992
2 47452  97.4907 267.1089 0010545 334.1878  25.8825 15.13046977 27802
1 47452U 21006AR  21206.89216155  .00000987  00000-0  59467-4 0  9998
2 47452  97.4907 267.4988 0010513 332.6908  27.3769 15.13047877 27865
1 47452U 21006AR  21207.42123026  .00000935  00000-0  56542-4 0  9996
2 47452  97.4906 268.0185 0010469 330.7065  29.3578 15.13048732 27943
1 47452U 21006AR  21207.48736381  .00000918  00000-0  55578-4 0  9995
2 47452  97.4906 268.0835 0010458 330.4495  29.6144 15.13048801 27957
1 47452U 21006AR  21208.47936647  .00000854  00000-0  51949-4 0  9999
2 47452  97.4906 269.0580 0010369 326.7205  33.3373 15.13050623 28102
1 47452U 21006AR  21208.61163338  .00000847  00000-0  51552-4 0  9996
2 47452  97.4906 269.1879 0010358 326.2062  33.8508 15.13050886 28126
1 47452U 21006AR  21208.87616711  .00000859  00000-0  52212-4 0  9999
2 47452  97.4905 269.4478 0010340 325.2265  34.8290 15.13051494 28167
1 47452U 21006AR  21209.14070067  .00000870  00000-0  52860-4 0  9990
2 47452  97.4905 269.7077 0010318 324.1903  35.8635 15.13052159 28205
1 47452U 21006AR  21209.66976759  .00000898  00000-0  54434-4 0  9999
2 47452  97.4905 270.2274 0010269 322.2181  37.8329 15.13053443 28280
1 47452U 21006AR  21210.13269973  .00001083  00000-0  64858-4 0  9994
2 47452  97.4904 270.6822 0010243 320.4687  39.5796 15.13055712 28351
1 47452U 21006AR  21210.72789842  .00001166  00000-0  69548-4 0  9994
2 47452  97.4904 271.2669 0010191 318.3092  41.7361 15.13057597 28441
1 47452U 21006AR  21210.79403156  .00001193  00000-0  71075-4 0  9990
2 47452  97.4904 271.3318 0010191 318.0267  42.0182 15.13057891 28457
1 47452U 21006AR  21211.12469255  .00001750  00000-0  10255-3 0  9991
2 47452  97.4903 271.6568 0010177 316.8193  43.2239 15.13063095 28509
1 47452U 21006AR  21211.58762268  .00001871  00000-0  10936-3 0  9991
2 47452  97.4903 272.1115 0010141 314.9927  45.0481 15.13065307 28572
1 47452U 21006AR  21212.57961481  .00002361  00000-0  13707-3 0  9993
2 47452  97.4899 273.0860 0010054 310.8120  49.2238 15.13070578 28725
1 47452U 21006AR  21213.10867544  .00002149  00000-0  12504-3 0  9996
2 47452  97.4900 273.6057 0010033 308.6218  51.4114 15.13072543 28803
1 47452U 21006AR  21213.43933887  .00001482  00000-0  87375-4 0  9994
2 47452  97.4900 273.9304 0009999 307.5148  52.5173 15.13071623 28850
1 47452U 21006AR  21213.90226711  .00001635  00000-0  96032-4 0  9997
2 47452  97.4901 274.3851 0010051 305.5459  54.4834 15.13072300 28923
1 47452U 21006AR  21214.43132769  .00001407  00000-0  83175-4 0  9996
2 47452  97.4901 274.9048 0010020 303.4375  56.5898 15.13072886 29009
1 47452U 21006AR  21214.62972572  .00001307  00000-0  77477-4 0  9998
2 47452  97.4901 275.0997 0009983 302.8315  57.1955 15.13072933 29034
1 47452U 21006AR  21215.15878516  .00001395  00000-0  82497-4 0  9995
2 47452  97.4900 275.6194 0009944 300.7346  59.2905 15.13075285 29116
1 47452U 21006AR  21215.62171320  .00001078  00000-0  64584-4 0  9991
2 47452  97.4901 276.0741 0009924 298.8300  61.1935 15.13074742 29184
1 47452U 21006AR  21216.34917032  .00000959  00000-0  57865-4 0  9990
2 47452  97.4900 276.7888 0009905 295.8729  64.1481 15.13075879 29296
1 47452U 21006AR  21216.67983239  .00000941  00000-0  56832-4 0  9992
2 47452  97.4900 277.1137 0009900 294.5959  65.4240 15.13076542 29345
1 47452U 21006AR  21216.81209743  .00000914  00000-0  55287-4 0  9992
2 47452  97.4900 277.2436 0009881 294.0698  65.9499 15.13076590 29367
1 47452U 21006AR  21217.47342178  .00000787  00000-0  48127-4 0  9998
2 47452  97.4902 277.8932 0009847 291.3534  68.6646 15.13077025 29466
1 47452U 21006AR  21218.13474571  .00000769  00000-0  47134-4 0  9992
2 47452  97.4901 278.5428 0009823 288.7152  71.3013 15.13077918 29564
1 47452U 21006AR  21218.33314277  .00000732  00000-0  45042-4 0  9996
2 47452  97.4900 278.7376 0009815 287.8606  72.1554 15.13077991 29595
1 47452U 21006AR  21219.12673111  .00000589  00000-0  36944-4 0  9990
2 47452  97.4899 279.5173 0009790 284.7864  75.2282 15.13078202 29712
1 47452U 21006AR  21219.39126014  .00000727  00000-0  44728-4 0  9997
2 47452  97.4899 279.7771 0009782 283.7104  76.3038 15.13079334 29757
1 47452U 21006AR  21220.11871493  .00000732  00000-0  45010-4 0  9998
2 47452  97.4898 280.4917 0009780 280.7313  79.2817 15.13080402 29861
1 47452U 21006AR  21220.44937637  .00000701  00000-0  43273-4 0  9992
2 47452  97.4897 280.8165 0009774 279.3865  80.6261 15.13080609 29912
1 47452U 21006AR  21220.78003732  .00000711  00000-0  43836-4 0  9995
2 47452  97.4897 281.1413 0009777 278.0555  81.9567 15.13081178 29967
1 47452U 21006AR  21221.44135930  .00000713  00000-0  43950-4 0  9994
2 47452  97.4896 281.7909 0009782 275.3578  84.6536 15.13082097 30063
1 47452U 21006AR  21221.57362356  .00000688  00000-0  42539-4 0  9995
2 47452  97.4896 281.9208 0009783 274.8006  85.2108 15.13082199 30085
1 47452U 21006AR  21222.43334145  .00000598  00000-0  37447-4 0  9998
2 47452  97.4894 282.7652 0009801 271.3086  88.7023 15.13082946 30215
1 47452U 21006AR  21223.09466260  .00000515  00000-0  32764-4 0  9991
2 47452  97.4893 283.4148 0009818 268.6286  91.3820 15.13083465 30314
1 47452U 21006AR  21223.42532284  .00000584  00000-0  36667-4 0  9990
2 47452  97.4893 283.7396 0009821 267.2874  92.7233 15.13084374 30362
1 47452U 21006AR  21224.15277551  .00000532  00000-0  33683-4 0  9992
2 47452  97.4892 284.4541 0009831 264.3327  95.6783 15.13085194 30478
1 47452U 21006AR  21224.41730365  .00000525  00000-0  33302-4 0  9998
2 47452  97.4892 284.7139 0009832 263.2600  96.7512 15.13085541 30510
1 47452U 21006AR  21225.47541573  .00000537  00000-0  33997-4 0  9999
2 47452  97.4891 285.7532 0009843 258.9635 101.0489 15.13087098 30677
1 47452U 21006AR  21225.80607559  .00000535  00000-0  33895-4 0  9998
2 47452  97.4891 286.0780 0009849 257.6393 102.3735 15.13087518 30720
1 47452U 21006AR  21226.40126336  .00000507  00000-0  32269-4 0  9997
2 47452  97.4890 286.6626 0009857 255.2381 104.7759 15.13088013 30817
1 47452U 21006AR  21226.59965918  .00000526  00000-0  33376-4 0  9995
2 47452  97.4890 286.8574 0009867 254.4285 105.5857 15.13088346 30846
1 47452U 21006AR  21226.79805498  .00000534  00000-0  33802-4 0  9996
2 47452  97.4890 287.0523 0009871 253.6523 106.3623 15.13088582 30879
1 47452U 21006AR  21227.39324230  .00000543  00000-0  34321-4 0  9990
2 47452  97.4889 287.6369 0009891 251.2423 108.7735 15.13089215 30960
